[{"OBJECT_NAME":"OBJECT A","OBJECT_ID":"2023-081A","EPOCH":"2026-03-09T22:51:43.391520","MEAN_MOTION":15.22207712,"ECCENTRICITY":0.0001697,"INCLINATION":97.3786,"RA_OF_ASC_NODE":140.8885,"ARG_OF_PERICENTER":111.1602,"MEAN_ANOMALY":248.9816,"EPHEMERIS_TYPE":0,"CLASSIFICATION_TYPE":"U","NORAD_CAT_ID":56846,"ELEMENT_SET_NO":999,"REV_AT_EPOCH":15291,"BSTAR":0.00017652669,"MEAN_MOTION_DOT":3.986e-5,"MEAN_MOTION_DDOT":0},{"OBJECT_NAME":"BALKAN-1","OBJECT_ID":"2025-009C","EPOCH":"2026-03-09T22:57:33.536160","MEAN_MOTION":15.23563799,"ECCENTRICITY":0.00059641,"INCLINATION":97.3965,"RA_OF_ASC_NODE":149.5165,"ARG_OF_PERICENTER":335.3558,"MEAN_ANOMALY":24.7393,"EPHEMERIS_TYPE":0,"CLASSIFICATION_TYPE":"U","NORAD_CAT_ID":62611,"ELEMENT_SET_NO":999,"REV_AT_EPOCH":6364,"BSTAR":0.00042017416,"MEAN_MOTION_DOT":9.985e-5,"MEAN_MOTION_DDOT":0}]
